[{"OBJECT_NAME":"STARLINK-2446","OBJECT_ID":"2021-018BK","EPOCH":"2026-03-09T21:50:56.098464","MEAN_MOTION":15.31042385,"ECCENTRICITY":0.00013745,"INCLINATION":53.1633,"RA_OF_ASC_NODE":244.8755,"ARG_OF_PERICENTER":91.3752,"MEAN_ANOMALY":268.7407,"EPHEMERIS_TYPE":0,"CLASSIFICATION_TYPE":"U","NORAD_CAT_ID":47844,"ELEMENT_SET_NO":999,"REV_AT_EPOCH":27671,"BSTAR":3.1842405e-5,"MEAN_MOTION_DOT":6.06e-6,"MEAN_MOTION_DDOT":0},{"OBJECT_NAME":"TEVEL2-6","OBJECT_ID":"2025-052F","EPOCH":"2026-03-09T15:35:24.554400","MEAN_MOTION":15.30760889,"ECCENTRICITY":0.0004769,"INCLINATION":97.4016,"RA_OF_ASC_NODE":325.0381,"ARG_OF_PERICENTER":95.6604,"MEAN_ANOMALY":264.5181,"EPHEMERIS_TYPE":0,"CLASSIFICATION_TYPE":"U","NORAD_CAT_ID":63215,"ELEMENT_SET_NO":999,"REV_AT_EPOCH":5486,"BSTAR":0.00070909,"MEAN_MOTION_DOT":0.00021046,"MEAN_MOTION_DDOT":0}]
